EUTELSAT 21B            
1 38992U 12062B   25326.73350191  .00000151  00000+0  00000+0 0  9994
2 38992   0.0687 356.9317 0003292 256.3372  94.3776  1.00269342 47758
EUTELSAT 70B            
1 39020U 12069A   25326.79323686 -.00000022  00000+0  00000+0 0  9997
2 39020   0.0661   9.3516 0004467 226.6715 182.0798  1.00271748 47436
EUTELSAT 117 WEST A     
1 39122U 13012A   25326.63470131  .00000008  00000+0  00000+0 0  9993
2 39122   0.0139 334.3802 0002670 261.5340 297.6685  1.00271399 46365
EUTELSAT 7B             
1 39163U 13022A   25326.73055522  .00000069  00000+0  00000+0 0  9990
2 39163   0.0721  11.9156 0003615 302.8985  17.1646  1.00271012 45881
EXPRESS-AT1             
1 39612U 14010A   25326.85045012  .00000099  00000+0  00000+0 0  9996
2 39612   0.0168 289.7236 0000818 129.6283   4.9241  1.00272854 42749
EXPRESS-AT2             
1 39613U 14010B   25326.75690206 -.00000260  00000+0  00000+0 0  9998
2 39613   0.0172 296.2525 0001184 358.1683 179.9346  1.00270583 42431
EUTELSAT 3B             
1 39773U 14030A   25326.72986190  .00000042  00000+0  00000+0 0  9991
2 39773   0.0717  21.3538 0004422 200.2117 106.2746  1.00273291 41997
EUTELSAT 115 WEST B     
1 40425U 15010B   25326.06434307 -.00000003  00000+0  00000+0 0  9999
2 40425   0.0144 141.9783 0000105 139.5154  48.1070  1.00271587 39310
